{
"type": "FeatureCollection",
"name": "demo8_crowns",
"crs": { "type": "name", "properties": { "name": "urn:ogc:def:crs:EPSG::32611" } },
"features": [
{ "type": "Feature", "properties": { "Confidence_score": 0.94265103340148926 }, "geometry": { "type": "Polygon", "coordinates": [ [ [ 316858.559301249973942, 4092038.200724999886006 ], [ 316858.459073750011157, 4092038.100995 ], [ 316856.254068750014994, 4092038.100995 ], [ 316856.153841249994002, 4092038.001265 ], [ 316855.853158749989234, 4092038.001265 ], [ 316855.752931249968242, 4092037.901535000186414 ], [ 316855.652703750005458, 4092037.901535000186414 ], [ 316855.552476249984466, 4092037.801804999820888 ], [ 316855.452248749963474, 4092037.801804999820888 ], [ 316855.352021250000689, 4092037.702075 ], [ 316855.251793749979697, 4092037.702075 ], [ 316855.051338749995921, 4092037.502615000121295 ], [ 316854.951111249974929, 4092037.502615000121295 ], [ 316854.550201250007376, 4092037.103695 ], [ 316854.550201250007376, 4092037.003965000156313 ], [ 316854.149291249981616, 4092036.605045 ], [ 316854.049063750018831, 4092036.605045 ], [ 316853.648153749993071, 4092036.206125 ], [ 316853.648153749993071, 4092036.106395000126213 ], [ 316853.547926249972079, 4092036.006665000226349 ], [ 316853.547926249972079, 4092035.906934999860823 ], [ 316853.447698750009295, 4092035.807205 ], [ 316853.447698750009295, 4092035.607745000161231 ], [ 316853.347471249988303, 4092035.508014999795705 ], [ 316853.347471249988303, 4092035.308555 ], [ 316853.247243749967311, 4092035.208825 ], [ 316853.247243749967311, 4092034.211525000166148 ], [ 316853.147016250004526, 4092034.111794999800622 ], [ 316853.147016250004526, 4092033.712875000201166 ], [ 316853.046788749983534, 4092033.61314499983564 ], [ 316853.046788749983534, 4092033.513415 ], [ 316852.946561249962542, 4092033.413685 ], [ 316852.946561249962542, 4092033.313955000136048 ], [ 316852.846333749999758, 4092033.214224999770522 ], [ 316852.846333749999758, 4092033.114494999870658 ], [ 316852.746106249978766, 4092033.014765 ], [ 316852.746106249978766, 4092032.915035 ], [ 316852.545651249994989, 4092032.71557499980554 ], [ 316852.545651249994989, 4092031.917735000140965 ], [ 316852.645878750015981, 4092031.81800499977544 ], [ 316852.645878750015981, 4092031.718274999875575 ], [ 316852.746106249978766, 4092031.618545 ], [ 316852.746106249978766, 4092031.518815 ], [ 316852.846333749999758, 4092031.419085000175983 ], [ 316852.846333749999758, 4092031.319354999810457 ], [ 316853.447698750009295, 4092030.720975 ], [ 316853.447698750009295, 4092030.621245 ], [ 316853.748381250014063, 4092030.322054999880493 ], [ 316853.748381250014063, 4092030.222325 ], [ 316854.149291249981616, 4092029.823405 ], [ 316854.249518750002608, 4092029.823405 ], [ 316855.151566250016913, 4092028.92583499988541 ], [ 316855.251793749979697, 4092028.92583499988541 ], [ 316855.652703750005458, 4092028.526914999820292 ], [ 316855.752931249968242, 4092028.526914999820292 ], [ 316855.853158749989234, 4092028.427185 ], [ 316855.953386250010226, 4092028.427185 ], [ 316856.153841249994002, 4092028.227725000120699 ], [ 316856.354296249977779, 4092028.227725000120699 ], [ 316856.454523749998771, 4092028.127995000220835 ], [ 316856.855433749966323, 4092028.127995000220835 ], [ 316856.955661249987315, 4092028.02826499985531 ], [ 316857.055888750008307, 4092028.127995000220835 ], [ 316857.256343749992084, 4092028.127995000220835 ], [ 316857.356571250013076, 4092028.227725000120699 ], [ 316857.557026249996852, 4092028.227725000120699 ], [ 316857.657253750017844, 4092028.327455 ], [ 316857.757481249980628, 4092028.327455 ], [ 316857.857708750001621, 4092028.427185 ], [ 316857.957936249964405, 4092028.427185 ], [ 316858.058163749985397, 4092028.526914999820292 ], [ 316858.158391250006389, 4092028.526914999820292 ], [ 316858.258618749969173, 4092028.626645000185817 ], [ 316858.459073750011157, 4092028.626645000185817 ], [ 316858.559301249973942, 4092028.726375 ], [ 316858.960211249999702, 4092028.726375 ], [ 316859.060438750020694, 4092028.826105 ], [ 316859.862258750014007, 4092028.826105 ], [ 316859.962486249976791, 4092028.92583499988541 ], [ 316860.66407875000732, 4092028.92583499988541 ], [ 316860.764306249970105, 4092029.025564999785274 ], [ 316861.165216249995865, 4092029.025564999785274 ], [ 316861.265443750016857, 4092029.1252950001508 ], [ 316861.566126250021625, 4092029.1252950001508 ], [ 316861.66635374998441, 4092029.225025 ], [ 316861.866808749968186, 4092029.225025 ], [ 316861.967036249989178, 4092029.324755 ], [ 316862.06726375001017, 4092029.324755 ], [ 316862.167491249972954, 4092029.424484999850392 ], [ 316862.267718749993946, 4092029.424484999850392 ], [ 316862.367946250014938, 4092029.524215000215918 ], [ 316862.568401249998715, 4092029.524215000215918 ], [ 316862.668628750019707, 4092029.623945000115782 ], [ 316862.768856249982491, 4092029.623945000115782 ], [ 316862.869083750003483, 4092029.723675 ], [ 316862.969311249966267, 4092029.723675 ], [ 316863.169766250008252, 4092029.923134999815375 ], [ 316863.269993749971036, 4092029.923134999815375 ], [ 316863.370221249992028, 4092030.0228650001809 ], [ 316863.47044875001302, 4092030.0228650001809 ], [ 316863.771131250017788, 4092030.322054999880493 ], [ 316863.871358749980573, 4092030.322054999880493 ], [ 316864.673178749973886, 4092031.119895 ], [ 316864.673178749973886, 4092031.219625 ], [ 316865.074088749999646, 4092031.618545 ], [ 316865.074088749999646, 4092031.718274999875575 ], [ 316865.274543749983422, 4092031.917735000140965 ], [ 316865.274543749983422, 4092032.017465 ], [ 316865.374771250004414, 4092032.117195 ], [ 316865.374771250004414, 4092032.316655000206083 ], [ 316865.474998749967199, 4092032.416385000105947 ], [ 316865.474998749967199, 4092032.516115 ], [ 316865.575226249988191, 4092032.615845 ], [ 316865.575226249988191, 4092032.71557499980554 ], [ 316865.675453750009183, 4092032.815305000171065 ], [ 316865.675453750009183, 4092033.014765 ], [ 316865.775681249971967, 4092033.114494999870658 ], [ 316865.775681249971967, 4092033.513415 ], [ 316865.875908749992959, 4092033.61314499983564 ], [ 316865.875908749992959, 4092034.610444999765605 ], [ 316865.775681249971967, 4092034.71017500013113 ], [ 316865.775681249971967, 4092035.009364999830723 ], [ 316865.675453750009183, 4092035.109095000196248 ], [ 316865.675453750009183, 4092035.308555 ], [ 316865.575226249988191, 4092035.408284999895841 ], [ 316865.575226249988191, 4092035.508014999795705 ], [ 316865.474998749967199, 4092035.607745000161231 ], [ 316865.474998749967199, 4092035.707475 ], [ 316865.374771250004414, 4092035.807205 ], [ 316865.374771250004414, 4092035.906934999860823 ], [ 316865.274543749983422, 4092036.006665000226349 ], [ 316865.274543749983422, 4092036.106395000126213 ], [ 316865.174316250020638, 4092036.206125 ], [ 316865.174316250020638, 4092036.405584999825805 ], [ 316864.973861249978654, 4092036.605045 ], [ 316864.973861249978654, 4092036.704775 ], [ 316864.773406249994878, 4092036.904234999790788 ], [ 316864.773406249994878, 4092037.003965000156313 ], [ 316864.673178749973886, 4092037.103695 ], [ 316864.673178749973886, 4092037.203425 ], [ 316864.372496249969117, 4092037.502615000121295 ], [ 316864.272268750006333, 4092037.502615000121295 ], [ 316864.172041249985341, 4092037.602345 ], [ 316864.071813750022557, 4092037.602345 ], [ 316863.971586250001565, 4092037.702075 ], [ 316863.771131250017788, 4092037.702075 ], [ 316863.670903749996796, 4092037.801804999820888 ], [ 316862.869083750003483, 4092037.801804999820888 ], [ 316862.768856249982491, 4092037.702075 ], [ 316862.668628750019707, 4092037.702075 ], [ 316862.568401249998715, 4092037.602345 ], [ 316862.267718749993946, 4092037.602345 ], [ 316862.167491249972954, 4092037.502615000121295 ], [ 316861.766581250005402, 4092037.502615000121295 ], [ 316861.66635374998441, 4092037.402885000221431 ], [ 316861.165216249995865, 4092037.402885000221431 ], [ 316860.964761250012089, 4092037.602345 ], [ 316860.864533749991097, 4092037.602345 ], [ 316860.764306249970105, 4092037.702075 ], [ 316860.66407875000732, 4092037.702075 ], [ 316860.463623749965336, 4092037.901535000186414 ], [ 316860.363396250002552, 4092037.901535000186414 ], [ 316860.26316874998156, 4092038.001265 ], [ 316860.162941250018775, 4092038.001265 ], [ 316860.062713749997783, 4092038.100995 ], [ 316859.661803749972023, 4092038.100995 ], [ 316859.561576250009239, 4092038.200724999886006 ], [ 316858.559301249973942, 4092038.200724999886006 ] ] ] } },
{ "type": "Feature", "properties": { "Confidence_score": 0.83857977390289307 }, "geometry": { "type": "Polygon", "coordinates": [ [ [ 316841.019488749967422, 4092031.718274999875575 ], [ 316840.919261250004638, 4092031.618545 ], [ 316840.718806249962654, 4092031.618545 ], [ 316840.518351249978878, 4092031.419085000175983 ], [ 316840.418123749957886, 4092031.419085000175983 ], [ 316840.217668749974109, 4092031.219625 ], [ 316840.117441250011325, 4092031.219625 ], [ 316839.716531249985565, 4092030.820704999845475 ], [ 316839.616303749964572, 4092030.820704999845475 ], [ 316839.516076250001788, 4092030.720975 ], [ 316839.415848749980796, 4092030.720975 ], [ 316839.21539374999702, 4092030.521515000145882 ], [ 316839.115166249976028, 4092030.521515000145882 ], [ 316838.914711249992251, 4092030.322054999880493 ], [ 316838.614028749987483, 4092030.322054999880493 ], [ 316838.513801249966491, 4092030.222325 ], [ 316838.413573750003707, 4092030.222325 ], [ 316838.313346249982715, 4092030.122595 ], [ 316838.213118749961723, 4092030.122595 ], [ 316838.012663749977946, 4092029.923134999815375 ], [ 316837.711981249973178, 4092029.923134999815375 ], [ 316837.611753750010394, 4092030.0228650001809 ], [ 316837.511526249989402, 4092029.923134999815375 ], [ 316837.110616249963641, 4092029.923134999815375 ], [ 316837.110616249963641, 4092028.826105 ], [ 316837.010388750000857, 4092028.726375 ], [ 316837.010388750000857, 4092025.435285000130534 ], [ 316837.110616249963641, 4092025.33555500023067 ], [ 316837.110616249963641, 4092023.939334999769926 ], [ 316837.611753750010394, 4092023.939334999769926 ], [ 316838.012663749977946, 4092024.338254999835044 ], [ 316838.112891249998938, 4092024.338254999835044 ], [ 316838.213118749961723, 4092024.238525 ], [ 316838.413573750003707, 4092024.238525 ], [ 316838.513801249966491, 4092024.138795 ], [ 316838.614028749987483, 4092024.138795 ], [ 316838.714256250008475, 4092024.039065000135452 ], [ 316838.814483749971259, 4092024.039065000135452 ], [ 316838.914711249992251, 4092023.939334999769926 ], [ 316839.115166249976028, 4092023.939334999769926 ], [ 316839.616303749964572, 4092023.440684999804944 ], [ 316839.616303749964572, 4092023.340955 ], [ 316839.716531249985565, 4092023.340955 ], [ 316840.61857874999987, 4092022.443384999874979 ], [ 316840.61857874999987, 4092022.343655 ], [ 316840.919261250004638, 4092022.044464999809861 ], [ 316840.919261250004638, 4092021.944735 ], [ 316841.620853749976959, 4092021.246625000145286 ], [ 316841.721081249997951, 4092021.246625000145286 ], [ 316841.921536249981727, 4092021.047164999879897 ], [ 316842.021763750002719, 4092021.047164999879897 ], [ 316842.222218749986496, 4092020.847705 ], [ 316842.322446250007488, 4092020.847705 ], [ 316842.422673749970272, 4092020.747975000180304 ], [ 316842.623128750012256, 4092020.747975000180304 ], [ 316842.723356249975041, 4092020.648244999814779 ], [ 316843.926086249994114, 4092020.648244999814779 ], [ 316844.026313750015106, 4092020.747975000180304 ], [ 316844.226768749998882, 4092020.747975000180304 ], [ 316844.326996249961667, 4092020.847705 ], [ 316844.427223749982659, 4092020.847705 ], [ 316844.527451250003651, 4092020.947435 ], [ 316844.627678749966435, 4092020.947435 ], [ 316844.727906249987427, 4092021.047164999879897 ], [ 316844.828133750008419, 4092021.047164999879897 ], [ 316844.928361249971204, 4092021.146894999779761 ], [ 316845.028588749992196, 4092021.146894999779761 ], [ 316845.429498749959748, 4092021.545814999844879 ], [ 316845.52972624998074, 4092021.545814999844879 ], [ 316845.52972624998074, 4092021.645545000210404 ], [ 316846.131091249990277, 4092022.243925 ], [ 316846.131091249990277, 4092022.343655 ], [ 316846.632228749978822, 4092022.842305 ], [ 316846.632228749978822, 4092022.942034999839962 ], [ 316847.434048749972135, 4092023.739875 ], [ 316847.434048749972135, 4092023.839604999870062 ], [ 316847.534276249993127, 4092023.939334999769926 ], [ 316847.534276249993127, 4092024.138795 ], [ 316847.634503750014119, 4092024.238525 ], [ 316847.634503750014119, 4092024.537715000100434 ], [ 316847.734731249976903, 4092024.637445 ], [ 316847.734731249976903, 4092025.235824999865144 ], [ 316847.834958749997895, 4092025.33555500023067 ], [ 316847.834958749997895, 4092027.030965 ], [ 316847.734731249976903, 4092027.130694999825209 ], [ 316847.734731249976903, 4092027.429885 ], [ 316847.634503750014119, 4092027.529614999890327 ], [ 316847.634503750014119, 4092027.729075000155717 ], [ 316847.534276249993127, 4092027.828805 ], [ 316847.534276249993127, 4092028.02826499985531 ], [ 316847.33382125000935, 4092028.227725000120699 ], [ 316847.33382125000935, 4092028.327455 ], [ 316847.033138750004582, 4092028.626645000185817 ], [ 316846.93291124998359, 4092028.626645000185817 ], [ 316846.431773749995045, 4092029.1252950001508 ], [ 316846.331546249974053, 4092029.1252950001508 ], [ 316846.231318750011269, 4092029.225025 ], [ 316846.131091249990277, 4092029.225025 ], [ 316846.030863749969285, 4092029.324755 ], [ 316845.930636250006501, 4092029.324755 ], [ 316845.52972624998074, 4092029.723675 ], [ 316845.429498749959748, 4092029.723675 ], [ 316845.329271249996964, 4092029.823405 ], [ 316845.229043749975972, 4092029.823405 ], [ 316845.128816250013188, 4092029.923134999815375 ], [ 316845.028588749992196, 4092029.923134999815375 ], [ 316844.928361249971204, 4092030.0228650001809 ], [ 316844.828133750008419, 4092030.0228650001809 ], [ 316844.627678749966435, 4092030.222325 ], [ 316844.527451250003651, 4092030.222325 ], [ 316844.427223749982659, 4092030.322054999880493 ], [ 316844.326996249961667, 4092030.322054999880493 ], [ 316844.226768749998882, 4092030.421784999780357 ], [ 316844.12654124997789, 4092030.421784999780357 ], [ 316843.825858749973122, 4092030.720975 ], [ 316843.725631250010338, 4092030.720975 ], [ 316843.324721249984577, 4092031.119895 ], [ 316843.224493749963585, 4092031.119895 ], [ 316843.024038749979809, 4092031.319354999810457 ], [ 316842.923811249958817, 4092031.319354999810457 ], [ 316842.723356249975041, 4092031.518815 ], [ 316842.623128750012256, 4092031.518815 ], [ 316842.522901249991264, 4092031.618545 ], [ 316842.322446250007488, 4092031.618545 ], [ 316842.222218749986496, 4092031.718274999875575 ], [ 316841.019488749967422, 4092031.718274999875575 ] ] ] } },
{ "type": "Feature", "properties": { "Confidence_score": 0.54475182294845581 }, "geometry": { "type": "Polygon", "coordinates": [ [ [ 316873.392971249995753, 4092025.136095 ], [ 316873.292743749974761, 4092025.036365 ], [ 316872.891833750007208, 4092025.036365 ], [ 316872.791606249986216, 4092024.936635000165552 ], [ 316872.59115125000244, 4092024.936635000165552 ], [ 316872.490923749981448, 4092024.836904999800026 ], [ 316872.390696250018664, 4092024.836904999800026 ], [ 316872.090013750013895, 4092024.537715000100434 ], [ 316871.989786249992903, 4092024.537715000100434 ], [ 316871.18796624999959, 4092023.739875 ], [ 316871.18796624999959, 4092023.640145 ], [ 316871.087738749978598, 4092023.540415000170469 ], [ 316871.087738749978598, 4092023.440684999804944 ], [ 316870.987511250015814, 4092023.340955 ], [ 316870.987511250015814, 4092023.241225 ], [ 316870.887283749994822, 4092023.141495000105351 ], [ 316870.887283749994822, 4092023.041765000205487 ], [ 316870.78705624997383, 4092022.942034999839962 ], [ 316870.78705624997383, 4092022.842305 ], [ 316870.686828750011045, 4092022.742575 ], [ 316870.686828750011045, 4092022.642845000140369 ], [ 316870.586601249990053, 4092022.543114999774843 ], [ 316870.586601249990053, 4092022.443384999874979 ], [ 316870.486373749969061, 4092022.343655 ], [ 316870.486373749969061, 4092022.243925 ], [ 316870.386146250006277, 4092022.144195000175387 ], [ 316870.386146250006277, 4092022.044464999809861 ], [ 316870.285918749985285, 4092021.944735 ], [ 316870.285918749985285, 4092021.645545000210404 ], [ 316870.185691250022501, 4092021.545814999844879 ], [ 316870.185691250022501, 4092020.149594999849796 ], [ 316870.285918749985285, 4092020.049865 ], [ 316870.285918749985285, 4092019.850405000150204 ], [ 316870.386146250006277, 4092019.750674999784678 ], [ 316870.386146250006277, 4092019.650944999884814 ], [ 316870.686828750011045, 4092019.351755000185221 ], [ 316870.78705624997383, 4092019.351755000185221 ], [ 316871.18796624999959, 4092018.952835000120103 ], [ 316871.288193750020582, 4092018.952835000120103 ], [ 316871.488648750004359, 4092018.753374999854714 ], [ 316871.689103749988135, 4092018.753374999854714 ], [ 316871.789331250009127, 4092018.653645 ], [ 316873.693653750000522, 4092018.653645 ], [ 316873.793881250021514, 4092018.753374999854714 ], [ 316874.194791249989066, 4092018.753374999854714 ], [ 316874.295018750010058, 4092018.853105000220239 ], [ 316874.595701250014827, 4092018.853105000220239 ], [ 316874.695928749977611, 4092018.952835000120103 ], [ 316874.996611249982379, 4092018.952835000120103 ], [ 316875.096838750003371, 4092019.052565 ], [ 316875.197066250024363, 4092019.052565 ], [ 316875.497748749970924, 4092019.351755000185221 ], [ 316875.497748749970924, 4092019.451485 ], [ 316875.597976249991916, 4092019.551215 ], [ 316875.597976249991916, 4092019.650944999884814 ], [ 316875.698203750012908, 4092019.750674999784678 ], [ 316875.698203750012908, 4092019.850405000150204 ], [ 316875.798431249975692, 4092019.950135 ], [ 316875.798431249975692, 4092020.548515 ], [ 316875.898658749996684, 4092020.648244999814779 ], [ 316875.898658749996684, 4092020.947435 ], [ 316875.798431249975692, 4092021.047164999879897 ], [ 316875.798431249975692, 4092022.144195000175387 ], [ 316875.698203750012908, 4092022.243925 ], [ 316875.698203750012908, 4092022.842305 ], [ 316875.597976249991916, 4092022.942034999839962 ], [ 316875.597976249991916, 4092023.141495000105351 ], [ 316875.497748749970924, 4092023.241225 ], [ 316875.497748749970924, 4092023.340955 ], [ 316875.39752125000814, 4092023.440684999804944 ], [ 316875.39752125000814, 4092023.540415000170469 ], [ 316875.297293749987148, 4092023.640145 ], [ 316875.297293749987148, 4092023.739875 ], [ 316875.197066250024363, 4092023.839604999870062 ], [ 316875.197066250024363, 4092024.039065000135452 ], [ 316875.096838750003371, 4092024.138795 ], [ 316875.096838750003371, 4092024.338254999835044 ], [ 316874.595701250014827, 4092024.836904999800026 ], [ 316874.495473749993835, 4092024.836904999800026 ], [ 316874.295018750010058, 4092025.036365 ], [ 316874.094563750026282, 4092025.036365 ], [ 316873.99433625000529, 4092025.136095 ], [ 316873.392971249995753, 4092025.136095 ] ] ] } },
{ "type": "Feature", "properties": { "Confidence_score": 0.5255245566368103 }, "geometry": { "type": "Polygon", "coordinates": [ [ [ 316857.857708750001621, 4092039.896135 ], [ 316857.757481249980628, 4092039.796405000146478 ], [ 316857.757481249980628, 4092039.497215 ], [ 316857.857708750001621, 4092039.397485 ], [ 316857.957936249964405, 4092039.397485 ], [ 316858.058163749985397, 4092039.297755000181496 ], [ 316858.158391250006389, 4092039.297755000181496 ], [ 316858.258618749969173, 4092039.198024999815971 ], [ 316858.358846249990165, 4092039.198024999815971 ], [ 316858.459073750011157, 4092039.098295 ], [ 316858.659528749994934, 4092039.098295 ], [ 316858.759756250015926, 4092038.998565 ], [ 316858.85998374997871, 4092038.998565 ], [ 316858.960211249999702, 4092038.898835000116378 ], [ 316859.26089375000447, 4092038.898835000116378 ], [ 316859.361121249967255, 4092038.799105000216514 ], [ 316859.561576250009239, 4092038.799105000216514 ], [ 316859.661803749972023, 4092038.699374999850988 ], [ 316860.363396250002552, 4092038.699374999850988 ], [ 316860.463623749965336, 4092038.599645 ], [ 316860.563851249986328, 4092038.699374999850988 ], [ 316860.764306249970105, 4092038.699374999850988 ], [ 316860.864533749991097, 4092038.799105000216514 ], [ 316861.064988749974873, 4092038.799105000216514 ], [ 316861.165216249995865, 4092038.898835000116378 ], [ 316861.265443750016857, 4092038.898835000116378 ], [ 316861.365671249979641, 4092038.998565 ], [ 316861.465898750000633, 4092038.998565 ], [ 316861.66635374998441, 4092039.198024999815971 ], [ 316861.766581250005402, 4092039.198024999815971 ], [ 316862.367946250014938, 4092039.796405000146478 ], [ 316862.468173749977723, 4092039.796405000146478 ], [ 316862.468173749977723, 4092039.896135 ], [ 316857.857708750001621, 4092039.896135 ] ] ] } },
{ "type": "Feature", "properties": { "Confidence_score": 0.5012250542640686 }, "geometry": { "type": "Polygon", "coordinates": [ [ [ 316856.554751250019763, 4092027.330155 ], [ 316856.454523749998771, 4092027.230425000190735 ], [ 316856.254068750014994, 4092027.230425000190735 ], [ 316856.153841249994002, 4092027.130694999825209 ], [ 316855.953386250010226, 4092027.130694999825209 ], [ 316855.853158749989234, 4092027.030965 ], [ 316855.752931249968242, 4092027.030965 ], [ 316855.652703750005458, 4092026.931235 ], [ 316855.452248749963474, 4092026.931235 ], [ 316855.352021250000689, 4092026.831505000125617 ], [ 316855.251793749979697, 4092026.831505000125617 ], [ 316855.151566250016913, 4092026.731775000225753 ], [ 316855.051338749995921, 4092026.731775000225753 ], [ 316854.951111249974929, 4092026.632044999860227 ], [ 316854.850883750012144, 4092026.632044999860227 ], [ 316854.65042874997016, 4092026.432585 ], [ 316854.65042874997016, 4092026.332855000160635 ], [ 316854.349746249965392, 4092026.033665 ], [ 316854.349746249965392, 4092025.933935 ], [ 316854.149291249981616, 4092025.734474999830127 ], [ 316854.149291249981616, 4092025.036365 ], [ 316854.249518750002608, 4092024.936635000165552 ], [ 316854.249518750002608, 4092024.737175 ], [ 316854.349746249965392, 4092024.637445 ], [ 316854.449973749986384, 4092024.637445 ], [ 316854.550201250007376, 4092024.537715000100434 ], [ 316854.65042874997016, 4092024.537715000100434 ], [ 316854.850883750012144, 4092024.338254999835044 ], [ 316855.051338749995921, 4092024.338254999835044 ], [ 316855.151566250016913, 4092024.238525 ], [ 316855.251793749979697, 4092024.238525 ], [ 316855.352021250000689, 4092024.138795 ], [ 316855.552476249984466, 4092024.138795 ], [ 316855.652703750005458, 4092024.039065000135452 ], [ 316856.354296249977779, 4092024.039065000135452 ], [ 316856.454523749998771, 4092024.138795 ], [ 316856.755206250003539, 4092024.138795 ], [ 316856.855433749966323, 4092024.238525 ], [ 316856.955661249987315, 4092024.238525 ], [ 316857.156116249971092, 4092024.43798500020057 ], [ 316857.156116249971092, 4092024.537715000100434 ], [ 316857.256343749992084, 4092024.637445 ], [ 316857.256343749992084, 4092024.936635000165552 ], [ 316857.356571250013076, 4092025.036365 ], [ 316857.356571250013076, 4092025.435285000130534 ], [ 316857.45679874997586, 4092025.535015 ], [ 316857.45679874997586, 4092026.332855000160635 ], [ 316857.356571250013076, 4092026.432585 ], [ 316857.356571250013076, 4092026.831505000125617 ], [ 316856.855433749966323, 4092027.330155 ], [ 316856.554751250019763, 4092027.330155 ] ] ] } },
{ "type": "Feature", "properties": { "Confidence_score": 0.30271625518798828 }, "geometry": { "type": "Polygon", "coordinates": [ [ [ 316871.789331250009127, 4092039.896135 ], [ 316871.689103749988135, 4092039.796405000146478 ], [ 316871.388421249983367, 4092039.796405000146478 ], [ 316871.288193750020582, 4092039.696674999780953 ], [ 316871.288193750020582, 4092039.596944999881089 ], [ 316871.18796624999959, 4092039.497215 ], [ 316871.18796624999959, 4092038.699374999850988 ], [ 316870.887283749994822, 4092038.400185000151396 ], [ 316870.887283749994822, 4092038.200724999886006 ], [ 316870.78705624997383, 4092038.100995 ], [ 316870.887283749994822, 4092038.001265 ], [ 316870.887283749994822, 4092037.702075 ], [ 316870.987511250015814, 4092037.602345 ], [ 316870.987511250015814, 4092037.502615000121295 ], [ 316871.388421249983367, 4092037.103695 ], [ 316871.388421249983367, 4092037.003965000156313 ], [ 316871.488648750004359, 4092036.904234999790788 ], [ 316871.588876250025351, 4092036.904234999790788 ], [ 316871.789331250009127, 4092036.704775 ], [ 316871.889558749971911, 4092036.704775 ], [ 316871.989786249992903, 4092036.605045 ], [ 316872.490923749981448, 4092036.605045 ], [ 316872.59115125000244, 4092036.505315000191331 ], [ 316872.691378750023432, 4092036.605045 ], [ 316872.992061249969993, 4092036.605045 ], [ 316873.092288749990985, 4092036.704775 ], [ 316873.192516250011977, 4092036.704775 ], [ 316873.493198750016745, 4092037.003965000156313 ], [ 316873.59342624997953, 4092037.003965000156313 ], [ 316873.693653750000522, 4092037.103695 ], [ 316873.793881250021514, 4092037.103695 ], [ 316873.894108749984298, 4092037.203425 ], [ 316873.99433625000529, 4092037.203425 ], [ 316874.495473749993835, 4092037.702075 ], [ 316874.495473749993835, 4092037.801804999820888 ], [ 316874.595701250014827, 4092037.901535000186414 ], [ 316874.595701250014827, 4092038.001265 ], [ 316874.695928749977611, 4092038.100995 ], [ 316874.695928749977611, 4092038.799105000216514 ], [ 316874.796156249998603, 4092038.898835000116378 ], [ 316874.796156249998603, 4092039.198024999815971 ], [ 316874.896383750019595, 4092039.297755000181496 ], [ 316874.896383750019595, 4092039.596944999881089 ], [ 316874.996611249982379, 4092039.696674999780953 ], [ 316874.996611249982379, 4092039.796405000146478 ], [ 316874.695928749977611, 4092039.796405000146478 ], [ 316874.595701250014827, 4092039.896135 ], [ 316871.789331250009127, 4092039.896135 ] ] ] } },
{ "type": "Feature", "properties": { "Confidence_score": 0.28375035524368286 }, "geometry": { "type": "Polygon", "coordinates": [ [ [ 316851.844058749964461, 4092025.235824999865144 ], [ 316851.743831250001676, 4092025.136095 ], [ 316851.443148749996908, 4092025.136095 ], [ 316851.242693750013132, 4092024.936635000165552 ], [ 316851.242693750013132, 4092024.836904999800026 ], [ 316851.042238749971148, 4092024.637445 ], [ 316851.042238749971148, 4092024.43798500020057 ], [ 316850.942011250008363, 4092024.338254999835044 ], [ 316850.942011250008363, 4092024.039065000135452 ], [ 316850.841783749987371, 4092023.939334999769926 ], [ 316850.841783749987371, 4092023.739875 ], [ 316850.741556249966379, 4092023.640145 ], [ 316850.741556249966379, 4092023.440684999804944 ], [ 316850.641328750003595, 4092023.340955 ], [ 316850.641328750003595, 4092023.041765000205487 ], [ 316850.541101249982603, 4092022.942034999839962 ], [ 316850.541101249982603, 4092022.443384999874979 ], [ 316850.641328750003595, 4092022.343655 ], [ 316850.641328750003595, 4092022.044464999809861 ], [ 316850.741556249966379, 4092021.944735 ], [ 316850.741556249966379, 4092021.845005 ], [ 316850.942011250008363, 4092021.645545000210404 ], [ 316851.042238749971148, 4092021.645545000210404 ], [ 316851.14246624999214, 4092021.545814999844879 ], [ 316851.242693750013132, 4092021.545814999844879 ], [ 316851.342921249975916, 4092021.446085 ], [ 316851.5433762500179, 4092021.446085 ], [ 316851.643603749980684, 4092021.346355 ], [ 316851.743831250001676, 4092021.346355 ], [ 316851.844058749964461, 4092021.246625000145286 ], [ 316852.244968749990221, 4092021.246625000145286 ], [ 316852.345196250011213, 4092021.146894999779761 ], [ 316852.545651249994989, 4092021.146894999779761 ], [ 316852.645878750015981, 4092021.246625000145286 ], [ 316853.447698750009295, 4092021.246625000145286 ], [ 316853.547926249972079, 4092021.146894999779761 ], [ 316853.848608749976847, 4092021.146894999779761 ], [ 316853.948836249997839, 4092021.047164999879897 ], [ 316854.049063750018831, 4092021.146894999779761 ], [ 316854.149291249981616, 4092021.146894999779761 ], [ 316854.249518750002608, 4092021.246625000145286 ], [ 316854.349746249965392, 4092021.246625000145286 ], [ 316854.349746249965392, 4092021.346355 ], [ 316854.449973749986384, 4092021.446085 ], [ 316854.449973749986384, 4092021.545814999844879 ], [ 316854.550201250007376, 4092021.645545000210404 ], [ 316854.550201250007376, 4092021.944735 ], [ 316854.65042874997016, 4092022.044464999809861 ], [ 316854.65042874997016, 4092022.243925 ], [ 316854.750656249991152, 4092022.343655 ], [ 316854.750656249991152, 4092022.443384999874979 ], [ 316854.850883750012144, 4092022.543114999774843 ], [ 316854.850883750012144, 4092022.742575 ], [ 316854.951111249974929, 4092022.842305 ], [ 316854.951111249974929, 4092022.942034999839962 ], [ 316855.051338749995921, 4092023.041765000205487 ], [ 316855.051338749995921, 4092023.839604999870062 ], [ 316854.951111249974929, 4092023.939334999769926 ], [ 316854.951111249974929, 4092024.039065000135452 ], [ 316854.550201250007376, 4092024.43798500020057 ], [ 316854.449973749986384, 4092024.43798500020057 ], [ 316854.349746249965392, 4092024.537715000100434 ], [ 316854.249518750002608, 4092024.537715000100434 ], [ 316854.049063750018831, 4092024.737175 ], [ 316853.948836249997839, 4092024.737175 ], [ 316853.848608749976847, 4092024.836904999800026 ], [ 316853.748381250014063, 4092024.836904999800026 ], [ 316853.648153749993071, 4092024.936635000165552 ], [ 316853.547926249972079, 4092024.936635000165552 ], [ 316853.447698750009295, 4092025.036365 ], [ 316853.347471249988303, 4092025.036365 ], [ 316853.247243749967311, 4092025.136095 ], [ 316852.746106249978766, 4092025.136095 ], [ 316852.645878750015981, 4092025.235824999865144 ], [ 316851.844058749964461, 4092025.235824999865144 ] ] ] } },
{ "type": "Feature", "properties": { "Confidence_score": 0.18694742023944855 }, "geometry": { "type": "Polygon", "coordinates": [ [ [ 316875.798431249975692, 4092012.669845 ], [ 316875.698203750012908, 4092012.570115 ], [ 316875.597976249991916, 4092012.570115 ], [ 316875.297293749987148, 4092012.270924999844283 ], [ 316875.197066250024363, 4092012.270924999844283 ], [ 316874.996611249982379, 4092012.071465 ], [ 316874.495473749993835, 4092012.071465 ], [ 316874.395246249972843, 4092011.97173500014469 ], [ 316874.094563750026282, 4092011.97173500014469 ], [ 316873.99433625000529, 4092011.872004999779165 ], [ 316873.894108749984298, 4092011.872004999779165 ], [ 316873.894108749984298, 4092011.772274999879301 ], [ 316873.793881250021514, 4092011.672545 ], [ 316873.793881250021514, 4092011.373354999814183 ], [ 316873.693653750000522, 4092011.273625 ], [ 316873.693653750000522, 4092010.974435000214726 ], [ 316873.793881250021514, 4092010.8747049998492 ], [ 316873.793881250021514, 4092010.675245 ], [ 316873.894108749984298, 4092010.575515000149608 ], [ 316873.894108749984298, 4092010.276325 ], [ 316873.99433625000529, 4092010.176595 ], [ 316873.99433625000529, 4092009.578215000219643 ], [ 316874.194791249989066, 4092009.378755 ], [ 316874.495473749993835, 4092009.378755 ], [ 316874.595701250014827, 4092009.279025 ], [ 316874.796156249998603, 4092009.279025 ], [ 316874.896383750019595, 4092009.179295000154525 ], [ 316875.096838750003371, 4092009.179295000154525 ], [ 316875.197066250024363, 4092009.079564999789 ], [ 316875.497748749970924, 4092009.079564999789 ], [ 316875.597976249991916, 4092008.979834999889135 ], [ 316875.898658749996684, 4092008.979834999889135 ], [ 316875.898658749996684, 4092010.276325 ], [ 316875.998886250017677, 4092010.376054999884218 ], [ 316875.998886250017677, 4092011.97173500014469 ], [ 316875.898658749996684, 4092012.071465 ], [ 316875.898658749996684, 4092012.669845 ], [ 316875.798431249975692, 4092012.669845 ] ] ] } },
{ "type": "Feature", "properties": { "Confidence_score": 0.12921774387359619 }, "geometry": { "type": "Polygon", "coordinates": [ [ [ 316842.623128750012256, 4092039.796405000146478 ], [ 316842.522901249991264, 4092039.696674999780953 ], [ 316842.422673749970272, 4092039.696674999780953 ], [ 316842.322446250007488, 4092039.596944999881089 ], [ 316842.322446250007488, 4092039.297755000181496 ], [ 316842.422673749970272, 4092039.198024999815971 ], [ 316842.422673749970272, 4092038.699374999850988 ], [ 316842.522901249991264, 4092038.699374999850988 ], [ 316842.823583749996033, 4092038.400185000151396 ], [ 316842.823583749996033, 4092037.901535000186414 ], [ 316842.923811249958817, 4092037.801804999820888 ], [ 316842.823583749996033, 4092037.702075 ], [ 316842.823583749996033, 4092037.402885000221431 ], [ 316842.723356249975041, 4092037.303154999855906 ], [ 316842.723356249975041, 4092037.203425 ], [ 316842.823583749996033, 4092037.103695 ], [ 316842.723356249975041, 4092037.003965000156313 ], [ 316842.723356249975041, 4092036.804504999890924 ], [ 316842.823583749996033, 4092036.804504999890924 ], [ 316843.024038749979809, 4092036.605045 ], [ 316843.124266250000801, 4092036.605045 ], [ 316843.224493749963585, 4092036.505315000191331 ], [ 316843.525176249968354, 4092036.505315000191331 ], [ 316843.625403749989346, 4092036.405584999825805 ], [ 316844.326996249961667, 4092036.405584999825805 ], [ 316844.427223749982659, 4092036.505315000191331 ], [ 316844.527451250003651, 4092036.505315000191331 ], [ 316844.627678749966435, 4092036.605045 ], [ 316844.727906249987427, 4092036.605045 ], [ 316844.828133750008419, 4092036.704775 ], [ 316845.028588749992196, 4092036.704775 ], [ 316845.128816250013188, 4092036.804504999890924 ], [ 316845.52972624998074, 4092036.804504999890924 ], [ 316845.52972624998074, 4092037.003965000156313 ], [ 316845.429498749959748, 4092037.003965000156313 ], [ 316845.329271249996964, 4092037.103695 ], [ 316845.429498749959748, 4092037.203425 ], [ 316845.429498749959748, 4092037.303154999855906 ], [ 316845.329271249996964, 4092037.402885000221431 ], [ 316845.329271249996964, 4092037.502615000121295 ], [ 316845.429498749959748, 4092037.602345 ], [ 316845.329271249996964, 4092037.602345 ], [ 316845.229043749975972, 4092037.702075 ], [ 316845.229043749975972, 4092038.200724999886006 ], [ 316845.329271249996964, 4092038.30045499978587 ], [ 316845.329271249996964, 4092038.400185000151396 ], [ 316845.429498749959748, 4092038.499915 ], [ 316845.52972624998074, 4092038.499915 ], [ 316845.830408749985509, 4092038.799105000216514 ], [ 316845.830408749985509, 4092039.098295 ], [ 316846.030863749969285, 4092039.297755000181496 ], [ 316846.030863749969285, 4092039.497215 ], [ 316846.131091249990277, 4092039.596944999881089 ], [ 316846.131091249990277, 4092039.696674999780953 ], [ 316845.730181249964517, 4092039.696674999780953 ], [ 316845.629953750001732, 4092039.796405000146478 ], [ 316842.623128750012256, 4092039.796405000146478 ] ] ] } },
{ "type": "Feature", "properties": { "Confidence_score": 0.11631833761930466 }, "geometry": { "type": "Polygon", "coordinates": [ [ [ 316865.575226249988191, 4092039.796405000146478 ], [ 316865.474998749967199, 4092039.696674999780953 ], [ 316865.374771250004414, 4092039.696674999780953 ], [ 316865.274543749983422, 4092039.596944999881089 ], [ 316865.274543749983422, 4092039.198024999815971 ], [ 316865.374771250004414, 4092039.098295 ], [ 316865.374771250004414, 4092038.499915 ], [ 316865.474998749967199, 4092038.400185000151396 ], [ 316865.474998749967199, 4092038.001265 ], [ 316865.575226249988191, 4092037.901535000186414 ], [ 316865.575226249988191, 4092037.402885000221431 ], [ 316865.675453750009183, 4092037.303154999855906 ], [ 316865.675453750009183, 4092037.003965000156313 ], [ 316865.875908749992959, 4092036.804504999890924 ], [ 316865.976136250013951, 4092036.804504999890924 ], [ 316866.076363749976736, 4092036.704775 ], [ 316866.377046249981504, 4092036.704775 ], [ 316866.477273750002496, 4092036.804504999890924 ], [ 316868.281368749972899, 4092036.804504999890924 ], [ 316868.381596249993891, 4092036.704775 ], [ 316868.582051249977667, 4092036.704775 ], [ 316868.582051249977667, 4092036.904234999790788 ], [ 316868.682278749998659, 4092037.003965000156313 ], [ 316868.682278749998659, 4092037.103695 ], [ 316868.582051249977667, 4092037.203425 ], [ 316868.582051249977667, 4092037.502615000121295 ], [ 316868.481823750014883, 4092037.602345 ], [ 316868.481823750014883, 4092037.702075 ], [ 316868.381596249993891, 4092037.702075 ], [ 316868.281368749972899, 4092037.602345 ], [ 316868.281368749972899, 4092037.502615000121295 ], [ 316868.181141250010114, 4092037.402885000221431 ], [ 316867.98068624996813, 4092037.602345 ], [ 316867.98068624996813, 4092037.702075 ], [ 316867.880458750005346, 4092037.702075 ], [ 316867.780231249984354, 4092037.801804999820888 ], [ 316867.780231249984354, 4092038.898835000116378 ], [ 316867.880458750005346, 4092038.998565 ], [ 316867.880458750005346, 4092039.098295 ], [ 316868.080913749989122, 4092039.297755000181496 ], [ 316868.080913749989122, 4092039.397485 ], [ 316867.98068624996813, 4092039.497215 ], [ 316867.880458750005346, 4092039.497215 ], [ 316867.780231249984354, 4092039.596944999881089 ], [ 316867.680003750021569, 4092039.596944999881089 ], [ 316867.579776250000577, 4092039.696674999780953 ], [ 316867.479548749979585, 4092039.696674999780953 ], [ 316867.379321250016801, 4092039.796405000146478 ], [ 316865.575226249988191, 4092039.796405000146478 ] ] ] } },
{ "type": "Feature", "properties": { "Confidence_score": 0.10615342855453491 }, "geometry": { "type": "Polygon", "coordinates": [ [ [ 316852.144741249969229, 4092039.796405000146478 ], [ 316852.044513750006445, 4092039.696674999780953 ], [ 316851.944286249985453, 4092039.696674999780953 ], [ 316851.944286249985453, 4092039.596944999881089 ], [ 316851.643603749980684, 4092039.297755000181496 ], [ 316851.643603749980684, 4092038.599645 ], [ 316851.743831250001676, 4092038.499915 ], [ 316851.743831250001676, 4092038.400185000151396 ], [ 316851.944286249985453, 4092038.200724999886006 ], [ 316851.944286249985453, 4092038.100995 ], [ 316852.044513750006445, 4092038.001265 ], [ 316852.044513750006445, 4092037.801804999820888 ], [ 316852.144741249969229, 4092037.801804999820888 ], [ 316852.244968749990221, 4092037.702075 ], [ 316852.345196250011213, 4092037.702075 ], [ 316852.445423749973997, 4092037.602345 ], [ 316852.445423749973997, 4092037.502615000121295 ], [ 316853.046788749983534, 4092037.502615000121295 ], [ 316853.247243749967311, 4092037.702075 ], [ 316853.447698750009295, 4092037.702075 ], [ 316853.547926249972079, 4092037.801804999820888 ], [ 316853.648153749993071, 4092037.801804999820888 ], [ 316853.648153749993071, 4092037.901535000186414 ], [ 316853.748381250014063, 4092038.001265 ], [ 316853.748381250014063, 4092038.100995 ], [ 316854.149291249981616, 4092038.499915 ], [ 316854.149291249981616, 4092038.599645 ], [ 316854.249518750002608, 4092038.699374999850988 ], [ 316854.149291249981616, 4092038.799105000216514 ], [ 316854.149291249981616, 4092039.198024999815971 ], [ 316854.049063750018831, 4092039.297755000181496 ], [ 316854.049063750018831, 4092039.497215 ], [ 316853.748381250014063, 4092039.796405000146478 ], [ 316852.144741249969229, 4092039.796405000146478 ] ] ] } }
]
}
